,OBJECT_NAME,OBJECT_ID,EPOCH,MEAN_MOTION,ECCENTRICITY,INCLINATION,RA_OF_ASC_NODE,ARG_OF_PERICENTER,MEAN_ANOMALY,NORAD_CAT_ID,REV_AT_EPOCH,BSTAR,MEAN_MOTION_DOT,MEAN_MOTION_DDOT,SEMIMAJOR_AXIS,PERIOD,APOAPSIS,PERIAPSIS,OBJECT_TYPE,RCS_SIZE,COUNTRY_CODE,LAUNCH_DATE,SITE
13276,ONEWEB-0220,2021-031Y,2021-10-31T19:31:49.318464,13.14504004,0.0002283,87.9022,265.466,67.9584,292.1788,48232,2646,0.00048616,1.93e-06,0.0,7583.923,109.547,1207.519,1204.056,0,2,UK,2021.0,VOSTO
13277,ONEWEB-0165,2021-031Z,2021-11-01T03:32:52.291680,13.1450515,0.0002328,87.8976,265.4355,70.983,289.1552,48233,2646,-0.0017865,-6.5e-06,0.0,7583.918,109.547,1207.549,1204.018,0,2,UK,2021.0,VOSTO
13278,ONEWEB-0199,2021-031AA,2021-10-31T14:21:15.445152,13.14500222,0.0002029,87.8957,265.5528,75.0548,285.0807,48234,2629,-0.00019839,-6.1e-07,0.0,7583.937,109.547,1207.341,1204.263,0,2,UK,2021.0,VOSTO
13279,ONEWEB-0203,2021-031AB,2021-10-31T19:34:51.688128,13.14502839,0.0002374,87.9063,265.3989,95.5251,264.6149,48235,2633,0.00095962,3.69e-06,0.0,7583.927,109.547,1207.593,1203.992,0,2,UK,2021.0,VOSTO
13280,ONEWEB-0197,2021-031AC,2021-10-31T15:37:21.369792,13.1450474,0.0002037,87.9015,265.5243,78.8309,281.305,48236,2622,0.00038039,1.54e-06,0.0,7583.92,109.547,1207.33,1204.24,0,2,UK,2021.0,VOSTO
13281,ONEWEB-0194,2021-031AD,2021-11-01T03:38:57.807744,13.14505006,0.0002037,87.9032,265.4264,98.5156,261.6204,48237,2646,-0.00083427,-2.97e-06,0.0,7583.919,109.547,1207.329,1204.239,0,2,UK,2021.0,VOSTO
13282,ONEWEB-0193,2021-031AE,2021-10-31T15:16:02.018208,13.14505315,0.0002282,87.9008,265.5232,85.7084,274.4307,48238,2634,3.7504e-05,2.7e-07,0.0,7583.918,109.547,1207.513,1204.052,0,2,UK,2021.0,VOSTO
13283,ONEWEB-0191,2021-031AF,2021-10-31T15:31:16.037760,13.14495392,0.0002039,87.8964,265.5419,85.4019,274.7344,48239,2620,0.0054164,2.021e-05,0.0,7583.956,109.548,1207.367,1204.274,0,2,UK,2021.0,VOSTO
13284,ONEWEB-0195,2021-031AG,2021-10-31T15:00:49.947840,13.14504764,0.000266,87.9009,265.5174,73.7972,286.345,48240,2618,-0.00016012,-4.7e-07,0.0,7583.92,109.547,1207.802,1203.767,0,2,UK,2021.0,VOSTO
13285,ONEWEB-0201,2021-031AH,2021-10-31T14:54:42.247584,13.14500565,0.0001887,87.9028,265.5326,80.5451,279.5892,48241,2641,-0.0004699,-1.61e-06,0.0,7583.936,109.547,1207.232,1204.37,0,2,UK,2021.0,VOSTO
13286,ONEWEB-0207,2021-031AJ,2021-10-31T14:18:12.620160,13.14500934,0.0001602,87.9046,265.5451,70.4293,289.701,48242,2632,0.00015316,7e-07,0.0,7583.935,109.547,1207.014,1204.585,0,2,UK,2021.0,VOSTO
13287,ONEWEB-0208,2021-031AK,2021-10-31T15:34:18.789312,13.14504683,0.0002532,87.9013,265.5171,78.4155,281.7259,48243,2634,0.00045867,1.83e-06,0.0,7583.92,109.547,1207.705,1203.865,0,2,UK,2021.0,VOSTO
13288,ONEWEB-0200,2021-031AL,2021-11-01T03:29:49.477056,13.14503859,0.0002606,87.9008,265.3963,76.4951,283.6469,48244,2634,-0.00069624,-2.45e-06,0.0,7583.923,109.547,1207.765,1203.812,0,2,UK,2021.0,VOSTO
13289,ONEWEB-0217,2021-031AM,2021-10-31T15:06:55.262592,13.14504036,0.000257,87.9047,265.5303,78.2397,281.9021,48245,2621,-0.0003375,-1.12e-06,0.0,7583.923,109.547,1207.737,1203.839,0,2,UK,2021.0,VOSTO
13310,PNEO3,2021-034A,2021-11-01T04:45:59.218848,14.81670984,0.0001471,97.8953,18.2007,86.609,273.5298,48268,2755,-2.2787e-05,-2.31e-06,0.0,7002.192,97.188,625.087,623.027,0,2,FR,2021.0,FRGUI
13311,LEMUR 2 AMANDA-SVANTE,2021-034B,2021-10-31T11:16:42.841056,14.86076276,0.0004927,97.775,16.0985,105.7371,254.4389,48269,2751,0.00022952,1.957e-05,0.0,6988.347,96.899,613.655,606.769,0,0,US,2021.0,FRGUI
