ONEWEB-0220             
1 48232U 21031Y   21304.81376526  .00000193  00000-0  48616-3 0  9995
2 48232  87.9022 265.4660 0002283  67.9584 292.1788 13.14504004 26469
ONEWEB-0165             
1 48233U 21031Z   21305.14782745 -.00000650  00000-0 -17865-2 0  9998
2 48233  87.8976 265.4355 0002328  70.9830 289.1552 13.14505150 26464
ONEWEB-0199             
1 48234U 21031AA  21304.59809543 -.00000061  00000-0 -19839-3 0  9993
2 48234  87.8957 265.5528 0002029  75.0548 285.0807 13.14500222 26291
ONEWEB-0203             
1 48235U 21031AB  21304.81587602  .00000369  00000-0  95962-3 0  9998
2 48235  87.9063 265.3989 0002374  95.5251 264.6149 13.14502839 26334
ONEWEB-0197             
1 48236U 21031AC  21304.65094178  .00000154  00000-0  38039-3 0  9996
2 48236  87.9015 265.5243 0002037  78.8309 281.3050 13.14504740 26229
ONEWEB-0194             
1 48237U 21031AD  21305.15205796 -.00000297  00000-0 -83427-3 0  9994
2 48237  87.9032 265.4264 0002037  98.5156 261.6204 13.14505006 26464
ONEWEB-0193             
1 48238U 21031AE  21304.63613447  .00000027  00000-0  37504-4 0  9998
2 48238  87.9008 265.5232 0002282  85.7084 274.4307 13.14505315 26340
ONEWEB-0191             
1 48239U 21031AF  21304.64671340  .00002021  00000-0  54164-2 0  9991
2 48239  87.8964 265.5419 0002039  85.4019 274.7344 13.14495392 26205
ONEWEB-0195             
1 48240U 21031AG  21304.62557810 -.00000047  00000-0 -16012-3 0  9995
2 48240  87.9009 265.5174 0002660  73.7972 286.3450 13.14504764 26182
ONEWEB-0201             
1 48241U 21031AH  21304.62132231 -.00000161  00000-0 -46990-3 0  9997
2 48241  87.9028 265.5326 0001887  80.5451 279.5892 13.14500565 26416
ONEWEB-0207             
1 48242U 21031AJ  21304.59597940  .00000070  00000-0  15316-3 0  9991
2 48242  87.9046 265.5451 0001602  70.4293 289.7010 13.14500934 26328
ONEWEB-0208             
1 48243U 21031AK  21304.64882858  .00000183  00000-0  45867-3 0  9992
2 48243  87.9013 265.5171 0002532  78.4155 281.7259 13.14504683 26344
ONEWEB-0200             
1 48244U 21031AL  21305.14571154 -.00000245  00000-0 -69624-3 0  9991
2 48244  87.9008 265.3963 0002606  76.4951 283.6469 13.14503859 26348
ONEWEB-0217             
1 48245U 21031AM  21304.62980628 -.00000112  00000-0 -33750-3 0  9998
2 48245  87.9047 265.5303 0002570  78.2397 281.9021 13.14504036 26215
PLEIADES NEO 3          
1 48268U 21034A   21305.19860207 -.00000231  00000-0 -22787-4 0  9990
2 48268  97.8953  18.2007 0001471  86.6090 273.5298 14.81670984 27554
LEMUR-2-AMANDA-SVANTE   
1 48269U 21034B   21304.46994029  .00001957  00000-0  22952-3 0  9997
2 48269  97.7750  16.0985 0004927 105.7371 254.4389 14.86076276 27518
